[{"OBJECT_NAME":"ONEWEB-0597","OBJECT_ID":"2022-166X","EPOCH":"2026-04-10T03:51:40.983264","MEAN_MOTION":13.21810085,"ECCENTRICITY":0.0001732,"INCLINATION":87.9187,"RA_OF_ASC_NODE":257.5397,"ARG_OF_PERICENTER":103.2744,"MEAN_ANOMALY":256.8584,"EPHEMERIS_TYPE":0,"CLASSIFICATION_TYPE":"U","NORAD_CAT_ID":54663,"ELEMENT_SET_NO":999,"REV_AT_EPOCH":16255,"BSTAR":0.00018114,"MEAN_MOTION_DOT":8.8e-07,"MEAN_MOTION_DDOT":0.0},{"OBJECT_NAME":"ONEWEB-0600","OBJECT_ID":"2022-166Y","EPOCH":"2026-04-10T03:25:01.706304","MEAN_MOTION":13.21850976,"ECCENTRICITY":0.0001977,"INCLINATION":87.9183,"RA_OF_ASC_NODE":257.5349,"ARG_OF_PERICENTER":99.953,"MEAN_ANOMALY":260.1828,"EPHEMERIS_TYPE":0,"CLASSIFICATION_TYPE":"U","NORAD_CAT_ID":54664,"ELEMENT_SET_NO":999,"REV_AT_EPOCH":16252,"BSTAR":-0.0097354,"MEAN_MOTION_DOT":-4.007e-05,"MEAN_MOTION_DDOT":0.0},{"OBJECT_NAME":"ONEWEB-0601","OBJECT_ID":"2022-166Z","EPOCH":"2026-04-10T03:12:54.347904","MEAN_MOTION":13.21863492,"ECCENTRICITY":0.0001692,"INCLINATION":87.919,"RA_OF_ASC_NODE":257.5531,"ARG_OF_PERICENTER":108.1818,"MEAN_ANOMALY":251.95,"EPHEMERIS_TYPE":0,"CLASSIFICATION_TYPE":"U","NORAD_CAT_ID":54665,"ELEMENT_SET_NO":999,"REV_AT_EPOCH":16271,"BSTAR":-0.014218000000000001,"MEAN_MOTION_DOT":-5.859e-05,"MEAN_MOTION_DDOT":0.0},{"OBJECT_NAME":"ONEWEB-0602","OBJECT_ID":"2022-166AA","EPOCH":"2026-04-10T04:12:16.196544","MEAN_MOTION":13.21794646,"ECCENTRICITY":0.0002046,"INCLINATION":87.9188,"RA_OF_ASC_NODE":257.5511,"ARG_OF_PERICENTER":100.001,"MEAN_ANOMALY":260.1355,"EPHEMERIS_TYPE":0,"CLASSIFICATION_TYPE":"U","NORAD_CAT_ID":54666,"ELEMENT_SET_NO":999,"REV_AT_EPOCH":16256,"BSTAR":0.011132000000000001,"MEAN_MOTION_DOT":4.611e-05,"MEAN_MOTION_DDOT":0.0},{"OBJECT_NAME":"ONEWEB-0603","OBJECT_ID":"2022-166AB","EPOCH":"2026-04-10T04:20:44.753856","MEAN_MOTION":13.21787861,"ECCENTRICITY":0.0001744,"INCLINATION":87.9205,"RA_OF_ASC_NODE":257.4991,"ARG_OF_PERICENTER":103.586,"MEAN_ANOMALY":256.5469,"EPHEMERIS_TYPE":0,"CLASSIFICATION_TYPE":"U","NORAD_CAT_ID":54667,"ELEMENT_SET_NO":999,"REV_AT_EPOCH":16249,"BSTAR":0.012709000000000002,"MEAN_MOTION_DOT":5.262e-05,"MEAN_MOTION_DDOT":0.0},{"OBJECT_NAME":"ONEWEB-0604","OBJECT_ID":"2022-166AC","EPOCH":"2026-04-10T04:03:47.417184","MEAN_MOTION":13.21803191,"ECCENTRICITY":0.000182,"INCLINATION":87.9199,"RA_OF_ASC_NODE":257.5165,"ARG_OF_PERICENTER":95.0826,"MEAN_ANOMALY":265.0516,"EPHEMERIS_TYPE":0,"CLASSIFICATION_TYPE":"U","NORAD_CAT_ID":54668,"ELEMENT_SET_NO":999,"REV_AT_EPOCH":16245,"BSTAR":0.0077203,"MEAN_MOTION_DOT":3.202e-05,"MEAN_MOTION_DDOT":0.0},{"OBJECT_NAME":"ONEWEB-0605","OBJECT_ID":"2022-166AD","EPOCH":"2026-04-09T20:38:05.895744","MEAN_MOTION":13.21802938,"ECCENTRICITY":0.000142,"INCLINATION":87.9189,"RA_OF_ASC_NODE":257.5985,"ARG_OF_PERICENTER":113.6157,"MEAN_ANOMALY":246.5126,"EPHEMERIS_TYPE":0,"CLASSIFICATION_TYPE":"U","NORAD_CAT_ID":54669,"ELEMENT_SET_NO":999,"REV_AT_EPOCH":16248,"BSTAR":0.0001828,"MEAN_MOTION_DOT":8.8e-07,"MEAN_MOTION_DDOT":0.0},{"OBJECT_NAME":"ONEWEB-0606","OBJECT_ID":"2022-166AE","EPOCH":"2026-04-10T04:25:35.619456","MEAN_MOTION":13.21782099,"ECCENTRICITY":0.0001836,"INCLINATION":87.9188,"RA_OF_ASC_NODE":257.5463,"ARG_OF_PERICENTER":92.9354,"MEAN_ANOMALY":267.199,"EPHEMERIS_TYPE":0,"CLASSIFICATION_TYPE":"U","NORAD_CAT_ID":54670,"ELEMENT_SET_NO":999,"REV_AT_EPOCH":16258,"BSTAR":0.011864,"MEAN_MOTION_DOT":4.912e-05,"MEAN_MOTION_DDOT":0.0},{"OBJECT_NAME":"ONEWEB-0607","OBJECT_ID":"2022-166AF","EPOCH":"2026-04-10T03:37:07.924224","MEAN_MOTION":13.21840503,"ECCENTRICITY":0.0001882,"INCLINATION":87.9189,"RA_OF_ASC_NODE":257.5192,"ARG_OF_PERICENTER":102.4247,"MEAN_ANOMALY":257.7098,"EPHEMERIS_TYPE":0,"CLASSIFICATION_TYPE":"U","NORAD_CAT_ID":54671,"ELEMENT_SET_NO":999,"REV_AT_EPOCH":16255,"BSTAR":-0.004124,"MEAN_MOTION_DOT":-1.69e-05,"MEAN_MOTION_DDOT":0.0},{"OBJECT_NAME":"ONEWEB-0608","OBJECT_ID":"2022-166AG","EPOCH":"2026-04-10T03:46:49.181952","MEAN_MOTION":13.21826902,"ECCENTRICITY":0.0001613,"INCLINATION":87.9198,"RA_OF_ASC_NODE":257.5127,"ARG_OF_PERICENTER":115.9997,"MEAN_ANOMALY":244.1303,"EPHEMERIS_TYPE":0,"CLASSIFICATION_TYPE":"U","NORAD_CAT_ID":54672,"ELEMENT_SET_NO":999,"REV_AT_EPOCH":16256,"BSTAR":0.00019132,"MEAN_MOTION_DOT":9.2e-07,"MEAN_MOTION_DDOT":0.0},{"OBJECT_NAME":"ONEWEB-0610","OBJECT_ID":"2022-166AH","EPOCH":"2026-04-10T03:17:43.441440","MEAN_MOTION":13.21863649,"ECCENTRICITY":0.000177,"INCLINATION":87.9187,"RA_OF_ASC_NODE":257.5381,"ARG_OF_PERICENTER":121.6725,"MEAN_ANOMALY":238.4581,"EPHEMERIS_TYPE":0,"CLASSIFICATION_TYPE":"U","NORAD_CAT_ID":54673,"ELEMENT_SET_NO":999,"REV_AT_EPOCH":16246,"BSTAR":-0.010266,"MEAN_MOTION_DOT":-4.227e-05,"MEAN_MOTION_DDOT":0.0},{"OBJECT_NAME":"ONEWEB-0611","OBJECT_ID":"2022-166AJ","EPOCH":"2026-04-10T03:08:03.989472","MEAN_MOTION":13.21866402,"ECCENTRICITY":0.0001638,"INCLINATION":87.9171,"RA_OF_ASC_NODE":257.535,"ARG_OF_PERICENTER":94.8488,"MEAN_ANOMALY":265.2833,"EPHEMERIS_TYPE":0,"CLASSIFICATION_TYPE":"U","NORAD_CAT_ID":54674,"ELEMENT_SET_NO":999,"REV_AT_EPOCH":16245,"BSTAR":-0.016918,"MEAN_MOTION_DOT":-6.973e-05,"MEAN_MOTION_DDOT":0.0},{"OBJECT_NAME":"ONEWEB-0612","OBJECT_ID":"2022-166AK","EPOCH":"2026-04-10T03:27:26.777088","MEAN_MOTION":13.218481,"ECCENTRICITY":0.0001654,"INCLINATION":87.92,"RA_OF_ASC_NODE":257.5205,"ARG_OF_PERICENTER":100.7758,"MEAN_ANOMALY":259.3562,"EPHEMERIS_TYPE":0,"CLASSIFICATION_TYPE":"U","NORAD_CAT_ID":54675,"ELEMENT_SET_NO":999,"REV_AT_EPOCH":16244,"BSTAR":-0.0082383,"MEAN_MOTION_DOT":-3.389e-05,"MEAN_MOTION_DDOT":0.0},{"OBJECT_NAME":"ONEWEB-0615","OBJECT_ID":"2022-166AL","EPOCH":"2026-04-10T02:58:22.693728","MEAN_MOTION":13.2188054,"ECCENTRICITY":0.0001833,"INCLINATION":87.9186,"RA_OF_ASC_NODE":257.5461,"ARG_OF_PERICENTER":93.5269,"MEAN_ANOMALY":266.6075,"EPHEMERIS_TYPE":0,"CLASSIFICATION_TYPE":"U","NORAD_CAT_ID":54676,"ELEMENT_SET_NO":999,"REV_AT_EPOCH":16245,"BSTAR":-0.02143,"MEAN_MOTION_DOT":-8.836e-05,"MEAN_MOTION_DDOT":0.0},{"OBJECT_NAME":"ONEWEB-0655","OBJECT_ID":"2022-166AM","EPOCH":"2026-04-10T04:13:28.588512","MEAN_MOTION":13.21796265,"ECCENTRICITY":0.0002131,"INCLINATION":87.9188,"RA_OF_ASC_NODE":257.5375,"ARG_OF_PERICENTER":101.4928,"MEAN_ANOMALY":258.6446,"EPHEMERIS_TYPE":0,"CLASSIFICATION_TYPE":"U","NORAD_CAT_ID":54677,"ELEMENT_SET_NO":999,"REV_AT_EPOCH":16245,"BSTAR":0.01149,"MEAN_MOTION_DOT":4.759e-05,"MEAN_MOTION_DDOT":0.0},{"OBJECT_NAME":"ONEWEB-0659","OBJECT_ID":"2022-166AN","EPOCH":"2026-04-10T04:37:42.698784","MEAN_MOTION":13.21768716,"ECCENTRICITY":0.0001801,"INCLINATION":87.9185,"RA_OF_ASC_NODE":257.5345,"ARG_OF_PERICENTER":96.1433,"MEAN_ANOMALY":263.9906,"EPHEMERIS_TYPE":0,"CLASSIFICATION_TYPE":"U","NORAD_CAT_ID":54678,"ELEMENT_SET_NO":999,"REV_AT_EPOCH":16254,"BSTAR":0.012763,"MEAN_MOTION_DOT":5.283e-05,"MEAN_MOTION_DDOT":0.0}]