ONEWEB-0597             
1 54663U 22166X   26100.16089101  .00000088  00000+0  18114-3 0  9999
2 54663  87.9187 257.5397 0001732 103.2744 256.8584 13.21810085162554
ONEWEB-0600             
1 54664U 22166Y   26100.14238086 -.00004007  00000+0 -97354-2 0  9995
2 54664  87.9183 257.5349 0001977  99.9530 260.1828 13.21850976162522
ONEWEB-0601             
1 54665U 22166Z   26100.13396236 -.00005859  00000+0 -14218-1 0  9990
2 54665  87.9190 257.5531 0001692 108.1818 251.9500 13.21863492162713
ONEWEB-0602             
1 54666U 22166AA  26100.17518746  .00004611  00000+0  11132-1 0  9992
2 54666  87.9188 257.5511 0002046 100.0010 260.1355 13.21794646162565
ONEWEB-0603             
1 54667U 22166AB  26100.18107354  .00005262  00000+0  12709-1 0  9997
2 54667  87.9205 257.4991 0001744 103.5860 256.5469 13.21787861162490
ONEWEB-0604             
1 54668U 22166AC  26100.16929881  .00003202  00000+0  77203-2 0  9996
2 54668  87.9199 257.5165 0001820  95.0826 265.0516 13.21803191162458
ONEWEB-0605             
1 54669U 22166AD  26099.85979046  .00000088  00000+0  18280-3 0  9998
2 54669  87.9189 257.5985 0001420 113.6157 246.5126 13.21802938162480
ONEWEB-0606             
1 54670U 22166AE  26100.18444004  .00004912  00000+0  11864-1 0  9999
2 54670  87.9188 257.5463 0001836  92.9354 267.1990 13.21782099162585
ONEWEB-0607             
1 54671U 22166AF  26100.15078616 -.00001690  00000+0 -41240-2 0  9993
2 54671  87.9189 257.5192 0001882 102.4247 257.7098 13.21840503162551
ONEWEB-0608             
1 54672U 22166AG  26100.15751368  .00000092  00000+0  19132-3 0  9995
2 54672  87.9198 257.5127 0001613 115.9997 244.1303 13.21826902162560
ONEWEB-0610             
1 54673U 22166AH  26100.13730835 -.00004227  00000+0 -10266-1 0  9993
2 54673  87.9187 257.5381 0001770 121.6725 238.4581 13.21863649162460
ONEWEB-0611             
1 54674U 22166AJ  26100.13060173 -.00006973  00000+0 -16918-1 0  9995
2 54674  87.9171 257.5350 0001638  94.8488 265.2833 13.21866402162457
ONEWEB-0612             
1 54675U 22166AK  26100.14405992 -.00003389  00000+0 -82383-2 0  9997
2 54675  87.9200 257.5205 0001654 100.7758 259.3562 13.21848100162442
ONEWEB-0615             
1 54676U 22166AL  26100.12387377 -.00008836  00000+0 -21430-1 0  9999
2 54676  87.9186 257.5461 0001833  93.5269 266.6075 13.21880540162450
ONEWEB-0655             
1 54677U 22166AM  26100.17602533  .00004759  00000+0  11490-1 0  9992
2 54677  87.9188 257.5375 0002131 101.4928 258.6446 13.21796265162453
ONEWEB-0659             
1 54678U 22166AN  26100.19285531  .00005283  00000+0  12763-1 0  9997
2 54678  87.9185 257.5345 0001801  96.1433 263.9906 13.21768716162542
